ORBCOMM FM24            
1 25478U 98053D   24135.31027345  .00002488  00000+0  90236-3 0  9995
2 25478  45.0090 356.8580 0001346  34.8894 325.2041 14.35689644340072
ORBCOMM FM25            
1 25479U 98053E   24135.34621210  .00002330  00000+0  84845-3 0  9995
2 25479  45.0082 354.9326 0003850  50.6397 309.4791 14.35668805340372
ORBCOMM FM26            
1 25480U 98053F   24135.28458039  .00002333  00000+0  85884-3 0  9994
2 25480  45.0076 349.3583 0005878  70.9446 289.2038 14.35111229340307
ORBCOMM FM27            
1 25481U 98053G   24135.26477569  .00002192  00000+0  80118-3 0  9990
2 25481  45.0065 355.5817 0000328 154.4238 205.6625 14.35652227340297
ORBCOMM FM28            
1 25482U 98053H   24135.45883978  .00002531  00000+0  90963-3 0  9993
2 25482  45.0054 293.1189 0003837 117.0288 243.0952 14.36090004340999
ORBCOMM FM30            
1 25980U 99065A   24135.38528776  .00001812  00000+0  67610-3 0  9998
2 25980  45.0295 174.4137 0006111 191.6851 168.3856 14.35249542277112
ORBCOMM FM31            
1 25981U 99065B   24135.35083922  .00002064  00000+0  76346-3 0  9991
2 25981  45.0209 168.2655 0004335 225.4189 134.6305 14.35249352276663
ORBCOMM FM32            
1 25982U 99065C   24135.40472062  .00001756  00000+0  66995-3 0  9991
2 25982  45.0137 181.8460 0006794 215.3059 144.7339 14.34225621277307
